{
  "type": "FeatureCollection",
  "features": [
    {
      "type": "Feature",
      "properties": {
        "norad_id": 28051,
        "name": "IRS-P6 (RESOURCESAT-1)",
        "group": "resource",
        "lat": -14.036674553792675,
        "lon": -154.32546795245347,
        "alt_km": 731.7872635365748,
        "timestamp": "2025-12-13T08:49:15.349909+00:00",
        "meta_object_name": "IRS-P6 (RESOURCESAT-1)",
        "meta_object_id": "2003-046A",
        "meta_epoch": "2025-12-13T01:29:53.384352",
        "meta_mean_motion": 14.36075223,
        "meta_eccentricity": 0.00641783,
        "meta_inclination": 98.2179,
        "meta_ra_of_asc_node": 27.4541,
        "meta_arg_of_pericenter": 179.7074,
        "meta_mean_anomaly": 237.6749,
        "meta_ephemeris_type": 0,
        "meta_classification_type": "U",
        "meta_norad_cat_id": 28051,
        "meta_element_set_no": 999,
        "meta_rev_at_epoch": 15381,
        "meta_bstar": 0.00012796293,
        "meta_mean_motion_dot": 3.4e-06,
        "meta_mean_motion_ddot": 0,
        "tle_line1": "1 28051U 03046A   25347.06242343  .00000340  00000+0  12796-3 0  9998",
        "tle_line2": "2 28051  98.2179  27.4541 0064178 179.7074 237.6749 14.36075223153817"
      },
      "geometry": {
        "type": "Point",
        "coordinates": [
          -154.32546795245347,
          -14.036674553792675
        ]
      }
    },
    {
      "type": "Feature",
      "properties": {
        "norad_id": 28220,
        "name": "SHIYAN-1 (SY-1)",
        "group": "resource",
        "lat": -80.57220104361015,
        "lon": 105.61809745407326,
        "alt_km": 486.01737437707925,
        "timestamp": "2025-12-13T08:49:15.349920+00:00",
        "meta_object_name": "SHIYAN-1 (SY-1)",
        "meta_object_id": "2004-012A",
        "meta_epoch": "2025-12-12T17:28:34.310496",
        "meta_mean_motion": 15.28143959,
        "meta_eccentricity": 0.00056576,
        "meta_inclination": 97.8936,
        "meta_ra_of_asc_node": 48.2653,
        "meta_arg_of_pericenter": 325.015,
        "meta_mean_anomaly": 35.0716,
        "meta_ephemeris_type": 0,
        "meta_classification_type": "U",
        "meta_norad_cat_id": 28220,
        "meta_element_set_no": 999,
        "meta_rev_at_epoch": 18256,
        "meta_bstar": 0.00069832605,
        "meta_mean_motion_dot": 0.00019116,
        "meta_mean_motion_ddot": 0,
        "tle_line1": "1 28220U 04012A   25346.72817489  .00019116  00000+0  69833-3 0  9996",
        "tle_line2": "2 28220  97.8936  48.2653 0005657 325.0150  35.0716 15.28143959182566"
      },
      "geometry": {
        "type": "Point",
        "coordinates": [
          105.61809745407326,
          -80.57220104361015
        ]
      }
    },
    {
      "type": "Feature",
      "properties": {
        "norad_id": 28376,
        "name": "AURA",
        "group": "resource",
        "lat": 22.7640489295373,
        "lon": 121.11682841540738,
        "alt_km": 689.3258625828257,
        "timestamp": "2025-12-13T08:49:15.349932+00:00",
        "meta_object_name": "AURA",
        "meta_object_id": "2004-026A",
        "meta_epoch": "2025-12-12T23:53:11.844672",
        "meta_mean_motion": 14.60948301,
        "meta_eccentricity": 0.00012693,
        "meta_inclination": 98.3182,
        "meta_ra_of_asc_node": 297.2231,
        "meta_arg_of_pericenter": 94.9147,
        "meta_mean_anomaly": 265.2198,
        "meta_ephemeris_type": 0,
        "meta_classification_type": "U",
        "meta_norad_cat_id": 28376,
        "meta_element_set_no": 999,
        "meta_rev_at_epoch": 13902,
        "meta_bstar": 0.00037977144,
        "meta_mean_motion_dot": 1.813e-05,
        "meta_mean_motion_ddot": 0,
        "tle_line1": "1 28376U 04026A   25346.99527598  .00001813  00000+0  37977-3 0  9990",
        "tle_line2": "2 28376  98.3182 297.2231 0001269  94.9147 265.2198 14.60948301139021"
      },
      "geometry": {
        "type": "Point",
        "coordinates": [
          121.11682841540738,
          22.7640489295373
        ]
      }
    },
    {
      "type": "Feature",
      "properties": {
        "norad_id": 28649,
        "name": "IRS-P5 (CARTOSAT-1)",
        "group": "resource",
        "lat": 74.35430658006241,
        "lon": -14.512078753899734,
        "alt_km": 588.8506398844274,
        "timestamp": "2025-12-13T08:49:15.349943+00:00",
        "meta_object_name": "IRS-P5 (CARTOSAT-1)",
        "meta_object_id": "2005-017A",
        "meta_epoch": "2025-12-13T00:25:25.053312",
        "meta_mean_motion": 14.90406135,
        "meta_eccentricity": 0.00012075,
        "meta_inclination": 97.5497,
        "meta_ra_of_asc_node": 13.4186,
        "meta_arg_of_pericenter": 47.514,
        "meta_mean_anomaly": 312.618,
        "meta_ephemeris_type": 0,
        "meta_classification_type": "U",
        "meta_norad_cat_id": 28649,
        "meta_element_set_no": 999,
        "meta_rev_at_epoch": 11608,
        "meta_bstar": 0.0003041763,
        "meta_mean_motion_dot": 2.911e-05,
        "meta_mean_motion_ddot": 0,
        "tle_line1": "1 28649U 05017A   25347.01765108  .00002911  00000+0  30418-3 0  9992",
        "tle_line2": "2 28649  97.5497  13.4186 0001207  47.5140 312.6180 14.90406135116086"
      },
      "geometry": {
        "type": "Point",
        "coordinates": [
          -14.512078753899734,
          74.35430658006241
        ]
      }
    },
    {
      "type": "Feature",
      "properties": {
        "norad_id": 28893,
        "name": "SINAH 1",
        "group": "resource",
        "lat": 9.670818494170883,
        "lon": 114.50768627750885,
        "alt_km": 688.2799696162347,
        "timestamp": "2025-12-13T08:49:15.349953+00:00",
        "meta_object_name": "SINAH 1",
        "meta_object_id": "2005-043D",
        "meta_epoch": "2025-12-12T22:56:02.951808",
        "meta_mean_motion": 14.63963084,
        "meta_eccentricity": 0.00153534,
        "meta_inclination": 98.2603,
        "meta_ra_of_asc_node": 115.5133,
        "meta_arg_of_pericenter": 136.3453,
        "meta_mean_anomaly": 223.8967,
        "meta_ephemeris_type": 0,
        "meta_classification_type": "U",
        "meta_norad_cat_id": 28893,
        "meta_element_set_no": 999,
        "meta_rev_at_epoch": 7327,
        "meta_bstar": 0.00015951402,
        "meta_mean_motion_dot": 7.87e-06,
        "meta_mean_motion_ddot": 0,
        "tle_line1": "1 28893U 05043D   25346.95558972  .00000787  00000+0  15951-3 0  9997",
        "tle_line2": "2 28893  98.2603 115.5133 0015353 136.3453 223.8967 14.63963084 73271"
      },
      "geometry": {
        "type": "Point",
        "coordinates": [
          114.50768627750885,
          9.670818494170883
        ]
      }
    },
    {
      "type": "Feature",
      "properties": {
        "norad_id": 29079,
        "name": "EROS B",
        "group": "resource",
        "lat": -73.2026967393126,
        "lon": -101.33338162440715,
        "alt_km": 369.402734769571,
        "timestamp": "2025-12-13T08:49:15.349964+00:00",
        "meta_object_name": "EROS B",
        "meta_object_id": "2006-014A",
        "meta_epoch": "2025-12-13T00:04:53.472288",
        "meta_mean_motion": 15.68378681,
        "meta_eccentricity": 0.00022523,
        "meta_inclination": 97.3466,
        "meta_ra_of_asc_node": 103.589,
        "meta_arg_of_pericenter": 305.1571,
        "meta_mean_anomaly": 54.948,
        "meta_ephemeris_type": 0,
        "meta_classification_type": "U",
        "meta_norad_cat_id": 29079,
        "meta_element_set_no": 999,
        "meta_rev_at_epoch": 9084,
        "meta_bstar": 0.0018543815,
        "meta_mean_motion_dot": 0.00213117,
        "meta_mean_motion_ddot": 0,
        "tle_line1": "1 29079U 06014A   25347.00339667  .00213117  00000+0  18544-2 0  9991",
        "tle_line2": "2 29079  97.3466 103.5890 0002252 305.1571  54.9480 15.68378681 90847"
      },
      "geometry": {
        "type": "Point",
        "coordinates": [
          -101.33338162440715,
          -73.2026967393126
        ]
      }
    },
    {
      "type": "Feature",
      "properties": {
        "norad_id": 29228,
        "name": "RESURS-DK 1",
        "group": "resource",
        "lat": 40.14811933461042,
        "lon": 118.17595948509279,
        "alt_km": 529.9769131408957,
        "timestamp": "2025-12-13T08:49:15.349991+00:00",
        "meta_object_name": "RESURS-DK 1",
        "meta_object_id": "2006-021A",
        "meta_epoch": "2025-12-12T18:20:29.454720",
        "meta_mean_motion": 15.12161288,
        "meta_eccentricity": 0.00072209,
        "meta_inclination": 69.9331,
        "meta_ra_of_asc_node": 101.7749,
        "meta_arg_of_pericenter": 259.1692,
        "meta_mean_anomaly": 100.8661,
        "meta_ephemeris_type": 0,
        "meta_classification_type": "U",
        "meta_norad_cat_id": 29228,
        "meta_element_set_no": 999,
        "meta_rev_at_epoch": 7438,
        "meta_bstar": 0.00025215557,
        "meta_mean_motion_dot": 4.255e-05,
        "meta_mean_motion_ddot": 0,
        "tle_line1": "1 29228U 06021A   25346.76422980  .00004255  00000+0  25216-3 0  9994",
        "tle_line2": "2 29228  69.9331 101.7749 0007220 259.1692 100.8661 15.12161288 74389"
      },
      "geometry": {
        "type": "Point",
        "coordinates": [
          118.17595948509279,
          40.14811933461042
        ]
      }
    }
  ]
}